[{"OBJECT_NAME":"LUCH 5V (SDCM/PRN 141)","OBJECT_ID":"2014-023A","EPOCH":"2026-04-25T21:02:21.931008","MEAN_MOTION":1.00272089,"ECCENTRICITY":0.0002183,"INCLINATION":5.0067,"RA_OF_ASC_NODE":70.2558,"ARG_OF_PERICENTER":337.6189,"MEAN_ANOMALY":216.3664,"EPHEMERIS_TYPE":0,"CLASSIFICATION_TYPE":"U","NORAD_CAT_ID":39727,"ELEMENT_SET_NO":999,"REV_AT_EPOCH":4383,"BSTAR":0,"MEAN_MOTION_DOT":-2.79e-6,"MEAN_MOTION_DDOT":0},{"OBJECT_NAME":"GPS BIIF-6  (PRN 06)","OBJECT_ID":"2014-026A","EPOCH":"2026-04-25T14:38:52.112832","MEAN_MOTION":2.00564849,"ECCENTRICITY":0.0038956,"INCLINATION":56.5223,"RA_OF_ASC_NODE":333.5646,"ARG_OF_PERICENTER":326.6637,"MEAN_ANOMALY":33.1281,"EPHEMERIS_TYPE":0,"CLASSIFICATION_TYPE":"U","NORAD_CAT_ID":39741,"ELEMENT_SET_NO":999,"REV_AT_EPOCH":8748,"BSTAR":0,"MEAN_MOTION_DOT":-7.7e-7,"MEAN_MOTION_DDOT":0},{"OBJECT_NAME":"COSMOS 2500 (755)","OBJECT_ID":"2014-032A","EPOCH":"2026-04-25T11:34:34.113792","MEAN_MOTION":2.13105809,"ECCENTRICITY":0.0005691,"INCLINATION":65.2631,"RA_OF_ASC_NODE":315.479,"ARG_OF_PERICENTER":182.2475,"MEAN_ANOMALY":177.7777,"EPHEMERIS_TYPE":0,"CLASSIFICATION_TYPE":"U","NORAD_CAT_ID":40001,"ELEMENT_SET_NO":999,"REV_AT_EPOCH":9233,"BSTAR":0,"MEAN_MOTION_DOT":-2.4e-7,"MEAN_MOTION_DDOT":0},{"OBJECT_NAME":"GPS BIIF-7  (PRN 09)","OBJECT_ID":"2014-045A","EPOCH":"2026-04-25T04:51:09.050112","MEAN_MOTION":2.00554849,"ECCENTRICITY":0.0031646,"INCLINATION":55.3192,"RA_OF_ASC_NODE":90.5744,"ARG_OF_PERICENTER":119.1673,"MEAN_ANOMALY":241.1386,"EPHEMERIS_TYPE":0,"CLASSIFICATION_TYPE":"U","NORAD_CAT_ID":40105,"ELEMENT_SET_NO":999,"REV_AT_EPOCH":8501,"BSTAR":0,"MEAN_MOTION_DOT":3.5e-7,"MEAN_MOTION_DDOT":0},{"OBJECT_NAME":"GSAT0201 (GALILEO 5)","OBJECT_ID":"2014-050A","EPOCH":"2026-04-25T14:18:41.336928","MEAN_MOTION":1.85519949,"ECCENTRICITY":0.1666211,"INCLINATION":48.9339,"RA_OF_ASC_NODE":275.589,"ARG_OF_PERICENTER":177.3352,"MEAN_ANOMALY":183.6762,"EPHEMERIS_TYPE":0,"CLASSIFICATION_TYPE":"U","NORAD_CAT_ID":40128,"ELEMENT_SET_NO":999,"REV_AT_EPOCH":7734,"BSTAR":0,"MEAN_MOTION_DOT":-5.7e-7,"MEAN_MOTION_DDOT":0},{"OBJECT_NAME":"GSAT0202 (GALILEO 6)","OBJECT_ID":"2014-050B","EPOCH":"2026-04-22T14:50:07.504224","MEAN_MOTION":1.85520499,"ECCENTRICITY":0.16668513,"INCLINATION":48.9541,"RA_OF_ASC_NODE":274.7956,"ARG_OF_PERICENTER":177.952,"MEAN_ANOMALY":182.83,"EPHEMERIS_TYPE":0,"CLASSIFICATION_TYPE":"U","NORAD_CAT_ID":40129,"ELEMENT_SET_NO":999,"REV_AT_EPOCH":7945,"BSTAR":0,"MEAN_MOTION_DOT":-2.6e-7,"MEAN_MOTION_DDOT":0},{"OBJECT_NAME":"IRNSS-1C","OBJECT_ID":"2014-061A","EPOCH":"2026-04-25T12:17:37.447008","MEAN_MOTION":1.00269848,"ECCENTRICITY":0.0021553,"INCLINATION":6.3834,"RA_OF_ASC_NODE":89.9311,"ARG_OF_PERICENTER":357.8322,"MEAN_ANOMALY":33.1859,"EPHEMERIS_TYPE":0,"CLASSIFICATION_TYPE":"U","NORAD_CAT_ID":40269,"ELEMENT_SET_NO":999,"REV_AT_EPOCH":4216,"BSTAR":0,"MEAN_MOTION_DOT":-1.7e-6,"MEAN_MOTION_DDOT":0},{"OBJECT_NAME":"GPS BIIF-8  (PRN 03)","OBJECT_ID":"2014-068A","EPOCH":"2026-04-25T01:49:51.208032","MEAN_MOTION":2.00572899,"ECCENTRICITY":0.0065217,"INCLINATION":56.9533,"RA_OF_ASC_NODE":33.0012,"ARG_OF_PERICENTER":68.8236,"MEAN_ANOMALY":291.8757,"EPHEMERIS_TYPE":0,"CLASSIFICATION_TYPE":"U","NORAD_CAT_ID":40294,"ELEMENT_SET_NO":999,"REV_AT_EPOCH":8414,"BSTAR":0,"MEAN_MOTION_DOT":-9.2e-7,"MEAN_MOTION_DDOT":0},{"OBJECT_NAME":"COSMOS 2501 (702K)","OBJECT_ID":"2014-075A","EPOCH":"2026-04-23T09:32:13.829856","MEAN_MOTION":2.13101329,"ECCENTRICITY":0.0021796,"INCLINATION":63.614,"RA_OF_ASC_NODE":192.268,"ARG_OF_PERICENTER":209.7934,"MEAN_ANOMALY":150.1349,"EPHEMERIS_TYPE":0,"CLASSIFICATION_TYPE":"U","NORAD_CAT_ID":40315,"ELEMENT_SET_NO":999,"REV_AT_EPOCH":8868,"BSTAR":0,"MEAN_MOTION_DOT":-7.0e-8,"MEAN_MOTION_DDOT":0},{"OBJECT_NAME":"GPS BIIF-9  (PRN 26)","OBJECT_ID":"2015-013A","EPOCH":"2026-04-25T05:03:20.509920","MEAN_MOTION":2.00554468,"ECCENTRICITY":0.0108873,"INCLINATION":53.1745,"RA_OF_ASC_NODE":206.3686,"ARG_OF_PERICENTER":39.9848,"MEAN_ANOMALY":320.838,"EPHEMERIS_TYPE":0,"CLASSIFICATION_TYPE":"U","NORAD_CAT_ID":40534,"ELEMENT_SET_NO":999,"REV_AT_EPOCH":8076,"BSTAR":0,"MEAN_MOTION_DOT":-3.9e-7,"MEAN_MOTION_DDOT":0},{"OBJECT_NAME":"GSAT0203 (GALILEO 7)","OBJECT_ID":"2015-017A","EPOCH":"2026-04-21T21:37:17.937984","MEAN_MOTION":1.70475713,"ECCENTRICITY":0.00025466,"INCLINATION":56.8042,"RA_OF_ASC_NODE":343.1309,"ARG_OF_PERICENTER":315.4442,"MEAN_ANOMALY":44.578,"EPHEMERIS_TYPE":0,"CLASSIFICATION_TYPE":"U","NORAD_CAT_ID":40544,"ELEMENT_SET_NO":999,"REV_AT_EPOCH":6824,"BSTAR":0,"MEAN_MOTION_DOT":-8.3e-7,"MEAN_MOTION_DDOT":0},{"OBJECT_NAME":"GSAT0204 (GALILEO 8)","OBJECT_ID":"2015-017B","EPOCH":"2026-04-25T02:08:52.340352","MEAN_MOTION":1.7047548,"ECCENTRICITY":0.0001553,"INCLINATION":56.8095,"RA_OF_ASC_NODE":343.0621,"ARG_OF_PERICENTER":296.0698,"MEAN_ANOMALY":63.9535,"EPHEMERIS_TYPE":0,"CLASSIFICATION_TYPE":"U","NORAD_CAT_ID":40545,"ELEMENT_SET_NO":999,"REV_AT_EPOCH":3134,"BSTAR":0,"MEAN_MOTION_DOT":-9.0e-7,"MEAN_MOTION_DDOT":0},{"OBJECT_NAME":"BEIDOU-3S IGSO-1S (C31)","OBJECT_ID":"2015-019A","EPOCH":"2026-04-22T23:45:28.549728","MEAN_MOTION":1.002611,"ECCENTRICITY":0.0037208,"INCLINATION":49.2998,"RA_OF_ASC_NODE":296.1212,"ARG_OF_PERICENTER":189.9963,"MEAN_ANOMALY":176.4804,"EPHEMERIS_TYPE":0,"CLASSIFICATION_TYPE":"U","NORAD_CAT_ID":40549,"ELEMENT_SET_NO":999,"REV_AT_EPOCH":4052,"BSTAR":0,"MEAN_MOTION_DOT":-1.71e-6,"MEAN_MOTION_DDOT":0},{"OBJECT_NAME":"GPS BIIF-10 (PRN 08)","OBJECT_ID":"2015-033A","EPOCH":"2026-04-25T08:53:03.992640","MEAN_MOTION":2.0055894,"ECCENTRICITY":0.0115006,"INCLINATION":54.0255,"RA_OF_ASC_NODE":269.2625,"ARG_OF_PERICENTER":29.884,"MEAN_ANOMALY":330.7367,"EPHEMERIS_TYPE":0,"CLASSIFICATION_TYPE":"U","NORAD_CAT_ID":40730,"ELEMENT_SET_NO":999,"REV_AT_EPOCH":7893,"BSTAR":0,"MEAN_MOTION_DOT":-3.9e-7,"MEAN_MOTION_DDOT":0},{"OBJECT_NAME":"BEIDOU-3S M2S (C58)","OBJECT_ID":"2015-037A","EPOCH":"2026-04-24T15:04:52.878720","MEAN_MOTION":1.86231783,"ECCENTRICITY":0.00074602,"INCLINATION":54.9188,"RA_OF_ASC_NODE":303.8896,"ARG_OF_PERICENTER":271.5693,"MEAN_ANOMALY":88.3464,"EPHEMERIS_TYPE":0,"CLASSIFICATION_TYPE":"U","NORAD_CAT_ID":40748,"ELEMENT_SET_NO":999,"REV_AT_EPOCH":7312,"BSTAR":0,"MEAN_MOTION_DOT":-4.5e-7,"MEAN_MOTION_DDOT":0},{"OBJECT_NAME":"BEIDOU-3S M1S (C57)","OBJECT_ID":"2015-037B","EPOCH":"2026-04-25T09:06:05.082336","MEAN_MOTION":1.86254812,"ECCENTRICITY":0.0004457,"INCLINATION":54.9149,"RA_OF_ASC_NODE":303.8513,"ARG_OF_PERICENTER":51.4305,"MEAN_ANOMALY":308.6107,"EPHEMERIS_TYPE":0,"CLASSIFICATION_TYPE":"U","NORAD_CAT_ID":40749,"ELEMENT_SET_NO":999,"REV_AT_EPOCH":7314,"BSTAR":0,"MEAN_MOTION_DOT":-4.9e-7,"MEAN_MOTION_DDOT":0},{"OBJECT_NAME":"GSAT0205 (GALILEO 9)","OBJECT_ID":"2015-045A","EPOCH":"2026-04-25T15:10:52.485024","MEAN_MOTION":1.67410754,"ECCENTRICITY":0.0005159,"INCLINATION":54.9613,"RA_OF_ASC_NODE":223.1764,"ARG_OF_PERICENTER":266.9978,"MEAN_ANOMALY":92.9342,"EPHEMERIS_TYPE":0,"CLASSIFICATION_TYPE":"U","NORAD_CAT_ID":40889,"ELEMENT_SET_NO":999,"REV_AT_EPOCH":6608,"BSTAR":0,"MEAN_MOTION_DOT":-3.8e-7,"MEAN_MOTION_DDOT":0}]
